[
  {
    "COMMENT": "GENERATED VIA SPACETRACK.ORG API",
    "ORIGINATOR": "18 SPCS",
    "NORAD_CAT_ID": "27421",
    "OBJECT_NAME": "SPOT 5",
    "OBJECT_TYPE": "PAYLOAD",
    "CLASSIFICATION_TYPE": "U",
    "INTLDES": "02021A",
    "EPOCH": "2023-04-14 04:17:34",
    "EPOCH_MICROSECONDS": "864800",
    "MEAN_MOTION": "14.52597198",
    "ECCENTRICITY": "0.0132863",
    "INCLINATION": "98.145",
    "RA_OF_ASC_NODE": "169.0381",
    "ARG_OF_PERICENTER": "271.5565",
    "MEAN_ANOMALY": "87.041",
    "EPHEMERIS_TYPE": "0",
    "ELEMENT_SET_NO": "999",
    "REV_AT_EPOCH": "9435",
    "BSTAR": "0.000083088",
    "MEAN_MOTION_DOT": "0.0000033",
    "MEAN_MOTION_DDOT": "0",
    "FILE": "3887333",
    "TLE_LINE0": "0 SPOT 5",
    "TLE_LINE1": "1 27421U 02021A   23104.17887575  .00000330  00000-0  83088-4 0  9996",
    "TLE_LINE2": "2 27421  98.1450 169.0381 0132863 271.5565  87.0410 14.52597198 94359",
    "OBJECT_ID": "2002-021A",
    "OBJECT_NUMBER": "27421",
    "SEMIMAJOR_AXIS": "7095.315",
    "PERIOD": "99.133",
    "APOGEE": "811.451",
    "PERIGEE": "622.910",
    "DECAYED": "0"
  },
  {
    "COMMENT": "GENERATED VIA SPACETRACK.ORG API",
    "ORIGINATOR": "18 SPCS",
    "NORAD_CAT_ID": "27421",
    "OBJECT_NAME": "SPOT 5",
    "OBJECT_TYPE": "PAYLOAD",
    "CLASSIFICATION_TYPE": "U",
    "INTLDES": "02021A",
    "EPOCH": "2023-04-14 22:28:41",
    "EPOCH_MICROSECONDS": "128032",
    "MEAN_MOTION": "14.52597846",
    "ECCENTRICITY": "0.0132856",
    "INCLINATION": "98.1451",
    "RA_OF_ASC_NODE": "169.7739",
    "ARG_OF_PERICENTER": "269.2137",
    "MEAN_ANOMALY": "89.3843",
    "EPHEMERIS_TYPE": "0",
    "ELEMENT_SET_NO": "999",
    "REV_AT_EPOCH": "9446",
    "BSTAR": "0.000084423",
    "MEAN_MOTION_DOT": "0.00000336",
    "MEAN_MOTION_DDOT": "0",
    "FILE": "3887473",
    "TLE_LINE0": "0 SPOT 5",
    "TLE_LINE1": "1 27421U 02021A   23104.93658713  .00000336  00000-0  84423-4 0  9990",
    "TLE_LINE2": "2 27421  98.1451 169.7739 0132856 269.2137  89.3843 14.52597846 94462",
    "OBJECT_ID": "2002-021A",
    "OBJECT_NUMBER": "27421",
    "SEMIMAJOR_AXIS": "7095.313",
    "PERIOD": "99.133",
    "APOGEE": "811.444",
    "PERIGEE": "622.913",
    "DECAYED": "0"
  },
  {
    "COMMENT": "GENERATED VIA SPACETRACK.ORG API",
    "ORIGINATOR": "18 SPCS",
    "NORAD_CAT_ID": "27421",
    "OBJECT_NAME": "SPOT 5",
    "OBJECT_TYPE": "PAYLOAD",
    "CLASSIFICATION_TYPE": "U",
    "INTLDES": "02021A",
    "EPOCH": "2023-04-15 05:05:27",
    "EPOCH_MICROSECONDS": "41856",
    "MEAN_MOTION": "14.52597915",
    "ECCENTRICITY": "0.0132849",
    "INCLINATION": "98.1448",
    "RA_OF_ASC_NODE": "170.0417",
    "ARG_OF_PERICENTER": "268.3576",
    "MEAN_ANOMALY": "90.2397",
    "EPHEMERIS_TYPE": "0",
    "ELEMENT_SET_NO": "999",
    "REV_AT_EPOCH": "9450",
    "BSTAR": "0.000081052",
    "MEAN_MOTION_DOT": "0.0000032",
    "MEAN_MOTION_DDOT": "0",
    "FILE": "3887877",
    "TLE_LINE0": "0 SPOT 5",
    "TLE_LINE1": "1 27421U 02021A   23105.21211854  .00000320  00000-0  81052-4 0  9991",
    "TLE_LINE2": "2 27421  98.1448 170.0417 0132849 268.3576  90.2397 14.52597915 94502",
    "OBJECT_ID": "2002-021A",
    "OBJECT_NUMBER": "27421",
    "SEMIMAJOR_AXIS": "7095.313",
    "PERIOD": "99.133",
    "APOGEE": "811.439",
    "PERIGEE": "622.918",
    "DECAYED": "0"
  },
  {
    "COMMENT": "GENERATED VIA SPACETRACK.ORG API",
    "ORIGINATOR": "18 SPCS",
    "NORAD_CAT_ID": "27421",
    "OBJECT_NAME": "SPOT 5",
    "OBJECT_TYPE": "PAYLOAD",
    "CLASSIFICATION_TYPE": "U",
    "INTLDES": "02021A",
    "EPOCH": "2023-04-15 15:00:35",
    "EPOCH_MICROSECONDS": "924256",
    "MEAN_MOTION": "14.52598191",
    "ECCENTRICITY": "0.0132856",
    "INCLINATION": "98.1447",
    "RA_OF_ASC_NODE": "170.4429",
    "ARG_OF_PERICENTER": "267.0754",
    "MEAN_ANOMALY": "91.5231",
    "EPHEMERIS_TYPE": "0",
    "ELEMENT_SET_NO": "999",
    "REV_AT_EPOCH": "9456",
    "BSTAR": "0.000080445",
    "MEAN_MOTION_DOT": "0.00000317",
    "MEAN_MOTION_DDOT": "0",
    "FILE": "3887974",
    "TLE_LINE0": "0 SPOT 5",
    "TLE_LINE1": "1 27421U 02021A   23105.62541579  .00000317  00000-0  80445-4 0  9997",
    "TLE_LINE2": "2 27421  98.1447 170.4429 0132856 267.0754  91.5231 14.52598191 94564",
    "OBJECT_ID": "2002-021A",
    "OBJECT_NUMBER": "27421",
    "SEMIMAJOR_AXIS": "7095.312",
    "PERIOD": "99.133",
    "APOGEE": "811.443",
    "PERIGEE": "622.912",
    "DECAYED": "0"
  },
  {
    "COMMENT": "GENERATED VIA SPACETRACK.ORG API",
    "ORIGINATOR": "18 SPCS",
    "NORAD_CAT_ID": "27421",
    "OBJECT_NAME": "SPOT 5",
    "OBJECT_TYPE": "PAYLOAD",
    "CLASSIFICATION_TYPE": "U",
    "INTLDES": "02021A",
    "EPOCH": "2023-04-15 18:18:58",
    "EPOCH_MICROSECONDS": "885920",
    "MEAN_MOTION": "14.52598239",
    "ECCENTRICITY": "0.0132865",
    "INCLINATION": "98.1445",
    "RA_OF_ASC_NODE": "170.5764",
    "ARG_OF_PERICENTER": "266.6472",
    "MEAN_ANOMALY": "91.9512",
    "EPHEMERIS_TYPE": "0",
    "ELEMENT_SET_NO": "999",
    "REV_AT_EPOCH": "9458",
    "BSTAR": "0.000079644",
    "MEAN_MOTION_DOT": "0.00000314",
    "MEAN_MOTION_DDOT": "0",
    "FILE": "3888171",
    "TLE_LINE0": "0 SPOT 5",
    "TLE_LINE1": "1 27421U 02021A   23105.76318155  .00000314  00000-0  79644-4 0  9990",
    "TLE_LINE2": "2 27421  98.1445 170.5764 0132865 266.6472  91.9512 14.52598239 94588",
    "OBJECT_ID": "2002-021A",
    "OBJECT_NUMBER": "27421",
    "SEMIMAJOR_AXIS": "7095.312",
    "PERIOD": "99.133",
    "APOGEE": "811.449",
    "PERIGEE": "622.905",
    "DECAYED": "0"
  },
  {
    "COMMENT": "GENERATED VIA SPACETRACK.ORG API",
    "ORIGINATOR": "18 SPCS",
    "NORAD_CAT_ID": "27421",
    "OBJECT_NAME": "SPOT 5",
    "OBJECT_TYPE": "PAYLOAD",
    "CLASSIFICATION_TYPE": "U",
    "INTLDES": "02021A",
    "EPOCH": "2023-04-16 14:09:16",
    "EPOCH_MICROSECONDS": "648992",
    "MEAN_MOTION": "14.52598966",
    "ECCENTRICITY": "0.0132869",
    "INCLINATION": "98.1446",
    "RA_OF_ASC_NODE": "171.3797",
    "ARG_OF_PERICENTER": "264.0795",
    "MEAN_ANOMALY": "94.5243",
    "EPHEMERIS_TYPE": "0",
    "ELEMENT_SET_NO": "999",
    "REV_AT_EPOCH": "9470",
    "BSTAR": "0.000082362",
    "MEAN_MOTION_DOT": "0.00000326",
    "MEAN_MOTION_DDOT": "0",
    "FILE": "3888626",
    "TLE_LINE0": "0 SPOT 5",
    "TLE_LINE1": "1 27421U 02021A   23106.58977603  .00000326  00000-0  82362-4 0  9994",
    "TLE_LINE2": "2 27421  98.1446 171.3797 0132869 264.0795  94.5243 14.52598966 94709",
    "OBJECT_ID": "2002-021A",
    "OBJECT_NUMBER": "27421",
    "SEMIMAJOR_AXIS": "7095.310",
    "PERIOD": "99.133",
    "APOGEE": "811.449",
    "PERIGEE": "622.900",
    "DECAYED": "0"
  },
  {
    "COMMENT": "GENERATED VIA SPACETRACK.ORG API",
    "ORIGINATOR": "18 SPCS",
    "NORAD_CAT_ID": "27421",
    "OBJECT_NAME": "SPOT 5",
    "OBJECT_TYPE": "PAYLOAD",
    "CLASSIFICATION_TYPE": "U",
    "INTLDES": "02021A",
    "EPOCH": "2023-04-16 17:27:39",
    "EPOCH_MICROSECONDS": "614976",
    "MEAN_MOTION": "14.52599052",
    "ECCENTRICITY": "0.0132847",
    "INCLINATION": "98.1442",
    "RA_OF_ASC_NODE": "171.5135",
    "ARG_OF_PERICENTER": "263.6491",
    "MEAN_ANOMALY": "94.9557",
    "EPHEMERIS_TYPE": "0",
    "ELEMENT_SET_NO": "999",
    "REV_AT_EPOCH": "9472",
    "BSTAR": "0.000081714",
    "MEAN_MOTION_DOT": "0.00000323",
    "MEAN_MOTION_DDOT": "0",
    "FILE": "3888702",
    "TLE_LINE0": "0 SPOT 5",
    "TLE_LINE1": "1 27421U 02021A   23106.72754184  .00000323  00000-0  81714-4 0  9994",
    "TLE_LINE2": "2 27421  98.1442 171.5135 0132847 263.6491  94.9557 14.52599052 94728",
    "OBJECT_ID": "2002-021A",
    "OBJECT_NUMBER": "27421",
    "SEMIMAJOR_AXIS": "7095.309",
    "PERIOD": "99.133",
    "APOGEE": "811.433",
    "PERIGEE": "622.915",
    "DECAYED": "0"
  },
  {
    "COMMENT": "GENERATED VIA SPACETRACK.ORG API",
    "ORIGINATOR": "18 SPCS",
    "NORAD_CAT_ID": "27421",
    "OBJECT_NAME": "SPOT 5",
    "OBJECT_TYPE": "PAYLOAD",
    "CLASSIFICATION_TYPE": "U",
    "INTLDES": "02021A",
    "EPOCH": "2023-04-16 22:25:14",
    "EPOCH_MICROSECONDS": "70432",
    "MEAN_MOTION": "14.52599262",
    "ECCENTRICITY": "0.0132837",
    "INCLINATION": "98.1443",
    "RA_OF_ASC_NODE": "171.7142",
    "ARG_OF_PERICENTER": "263.0144",
    "MEAN_ANOMALY": "95.5931",
    "EPHEMERIS_TYPE": "0",
    "ELEMENT_SET_NO": "999",
    "REV_AT_EPOCH": "9475",
    "BSTAR": "0.000082855",
    "MEAN_MOTION_DOT": "0.00000329",
    "MEAN_MOTION_DDOT": "0",
    "FILE": "3888799",
    "TLE_LINE0": "0 SPOT 5",
    "TLE_LINE1": "1 27421U 02021A   23106.93419063  .00000329  00000-0  82855-4 0  9994",
    "TLE_LINE2": "2 27421  98.1443 171.7142 0132837 263.0144  95.5931 14.52599262 94756",
    "OBJECT_ID": "2002-021A",
    "OBJECT_NUMBER": "27421",
    "SEMIMAJOR_AXIS": "7095.309",
    "PERIOD": "99.133",
    "APOGEE": "811.426",
    "PERIGEE": "622.922",
    "DECAYED": "0"
  },
  {
    "COMMENT": "GENERATED VIA SPACETRACK.ORG API",
    "ORIGINATOR": "18 SPCS",
    "NORAD_CAT_ID": "27421",
    "OBJECT_NAME": "SPOT 5",
    "OBJECT_TYPE": "PAYLOAD",
    "CLASSIFICATION_TYPE": "U",
    "INTLDES": "02021A",
    "EPOCH": "2023-04-17 14:57:08",
    "EPOCH_MICROSECONDS": "880480",
    "MEAN_MOTION": "14.52599771",
    "ECCENTRICITY": "0.0132872",
    "INCLINATION": "98.1444",
    "RA_OF_ASC_NODE": "172.3832",
    "ARG_OF_PERICENTER": "260.8583",
    "MEAN_ANOMALY": "97.7561",
    "EPHEMERIS_TYPE": "0",
    "ELEMENT_SET_NO": "999",
    "REV_AT_EPOCH": "9485",
    "BSTAR": "0.000082452",
    "MEAN_MOTION_DOT": "0.00000327",
    "MEAN_MOTION_DDOT": "0",
    "FILE": "3889215",
    "TLE_LINE0": "0 SPOT 5",
    "TLE_LINE1": "1 27421U 02021A   23107.62301945  .00000327  00000-0  82452-4 0  9991",
    "TLE_LINE2": "2 27421  98.1444 172.3832 0132872 260.8583  97.7561 14.52599771 94850",
    "OBJECT_ID": "2002-021A",
    "OBJECT_NUMBER": "27421",
    "SEMIMAJOR_AXIS": "7095.307",
    "PERIOD": "99.133",
    "APOGEE": "811.449",
    "PERIGEE": "622.895",
    "DECAYED": "0"
  }
]